{"type":"FeatureCollection","features":[{"type":"Feature","properties":{"name":"Altiplano de Granada","core":true,"osmId":9413249,"source":"OpenStreetMap (ODbL)"},"geometry":{"type":"Polygon","coordinates":[[[-3.01425,37.55112],[-2.99036,37.54345],[-2.97539,37.5436],[-2.97033,37.54152],[-2.9659,37.54615],[-2.96724,37.54752],[-2.96337,37.56061],[-2.95523,37.56116],[-2.95315,37.55815],[-2.94111,37.52673],[-2.93873,37.51278],[-2.93718,37.4563],[-2.94056,37.43893],[-2.93863,37.43405],[-2.93037,37.427],[-2.91663,37.39923],[-2.89747,37.3947],[-2.89153,37.39036],[-2.89966,37.37931],[-2.89985,37.36916],[-2.88987,37.36345],[-2.88104,37.3631],[-2.87282,37.36593],[-2.86253,37.36419],[-2.85309,37.36887],[-2.8362,37.36355],[-2.83349,37.35099],[-2.83974,37.34263],[-2.83564,37.33526],[-2.83665,37.32879],[-2.83256,37.32801],[-2.83209,37.32562],[-2.85044,37.31354],[-2.85602,37.31502],[-2.86192,37.31322],[-2.86013,37.30683],[-2.85393,37.30096],[-2.85485,37.29729],[-2.85244,37.29233],[-2.84822,37.29552],[-2.84006,37.29237],[-2.83792,37.28887],[-2.83209,37.28806],[-2.8336,37.28246],[-2.82541,37.2783],[-2.81936,37.27833],[-2.81488,37.27089],[-2.80217,37.26819],[-2.79485,37.26343],[-2.779,37.26266],[-2.77704,37.26023],[-2.77926,37.25711],[-2.77475,37.25366],[-2.77857,37.2517],[-2.77821,37.249],[-2.77208,37.23911],[-2.76209,37.2331],[-2.76471,37.23166],[-2.75903,37.22673],[-2.73999,37.22876],[-2.73302,37.23732],[-2.7304,37.23285],[-2.72532,37.23114],[-2.71853,37.2338],[-2.71069,37.22895],[-2.70986,37.22543],[-2.69416,37.22076],[-2.69273,37.21723],[-2.66911,37.2172],[-2.66312,37.21153],[-2.6594,37.21355],[-2.65763,37.22892],[-2.65991,37.23197],[-2.6635,37.23219],[-2.66629,37.23809],[-2.66751,37.24952],[-2.66171,37.26668],[-2.66565,37.28533],[-2.66303,37.29614],[-2.65087,37.31233],[-2.65459,37.31763],[-2.65048,37.32586],[-2.6546,37.34061],[-2.63716,37.34335],[-2.63509,37.36472],[-2.64319,37.37594],[-2.64131,37.37767],[-2.6418,37.3875],[-2.63852,37.38844],[-2.63691,37.39293],[-2.61506,37.40569],[-2.59678,37.42102],[-2.57727,37.42903],[-2.56845,37.44639],[-2.55669,37.45038],[-2.55089,37.45635],[-2.53505,37.46204],[-2.51415,37.47953],[-2.50309,37.48351],[-2.4741,37.48347],[-2.45752,37.49083],[-2.46197,37.49869],[-2.45874,37.5047],[-2.46016,37.50755],[-2.45632,37.50943],[-2.44008,37.51117],[-2.43428,37.50948],[-2.43262,37.51177],[-2.42378,37.51288],[-2.41604,37.51598],[-2.4117,37.52494],[-2.4072,37.52446],[-2.40295,37.51556],[-2.39722,37.51338],[-2.3944,37.51762],[-2.38115,37.52292],[-2.36264,37.52003],[-2.35851,37.52229],[-2.36044,37.5375],[-2.35539,37.54555],[-2.3743,37.55735],[-2.36746,37.56305],[-2.36789,37.57222],[-2.37493,37.57783],[-2.36981,37.58101],[-2.3679,37.59158],[-2.37598,37.61226],[-2.38032,37.61214],[-2.38879,37.61801],[-2.39127,37.63248],[-2.40278,37.63596],[-2.40712,37.6297],[-2.41106,37.62881],[-2.42481,37.63095],[-2.43058,37.63443],[-2.46453,37.63767],[-2.47678,37.64374],[-2.49809,37.64884],[-2.50699,37.65512],[-2.52755,37.65735],[-2.56537,37.67135],[-2.60257,37.67085],[-2.61496,37.66629],[-2.62171,37.66756],[-2.63693,37.66507],[-2.67042,37.66784],[-2.71138,37.69401],[-2.71058,37.69843],[-2.71653,37.70064],[-2.72247,37.70733],[-2.73512,37.70892],[-2.74073,37.71579],[-2.75208,37.71479],[-2.76384,37.70921],[-2.77935,37.7115],[-2.80754,37.72289],[-2.81582,37.73577],[-2.82832,37.748],[-2.83664,37.74467],[-2.84475,37.75341],[-2.85482,37.75191],[-2.86016,37.74838],[-2.87758,37.75957],[-2.89005,37.76146],[-2.89862,37.75717],[-2.90378,37.75117],[-2.90242,37.73895],[-2.90715,37.72918],[-2.90072,37.72315],[-2.9041,37.70989],[-2.90102,37.68781],[-2.89891,37.68479],[-2.88404,37.68132],[-2.8912,37.67302],[-2.9022,37.66571],[-2.97792,37.63398],[-2.97399,37.62291],[-2.97846,37.61688],[-2.98441,37.61425],[-2.9762,37.60634],[-2.97985,37.60217],[-2.97701,37.5938],[-2.96279,37.58116],[-2.9772,37.58138],[-2.98858,37.57793],[-2.99287,37.5711],[-3.01249,37.5598],[-3.01108,37.55816],[-3.01425,37.55112]]]}},{"type":"Feature","properties":{"name":"Altiplano de Granada","core":true,"osmId":9417042,"source":"OpenStreetMap (ODbL)"},"geometry":{"type":"Polygon","coordinates":[[[-2.88029,37.75994],[-2.86016,37.74838],[-2.85482,37.75191],[-2.84475,37.75341],[-2.83664,37.74467],[-2.82832,37.748],[-2.81582,37.73577],[-2.80754,37.72289],[-2.78957,37.71463],[-2.76384,37.70921],[-2.75208,37.71479],[-2.74073,37.71579],[-2.73512,37.70892],[-2.72247,37.70733],[-2.71653,37.70064],[-2.71058,37.69843],[-2.71138,37.69401],[-2.67042,37.66784],[-2.63693,37.66507],[-2.62171,37.66756],[-2.61496,37.66629],[-2.60257,37.67085],[-2.56537,37.67135],[-2.52755,37.65735],[-2.50699,37.65512],[-2.49809,37.64884],[-2.47678,37.64374],[-2.46242,37.63724],[-2.43058,37.63443],[-2.42481,37.63095],[-2.41106,37.62881],[-2.40712,37.6297],[-2.40278,37.63596],[-2.37388,37.62921],[-2.36377,37.62147],[-2.35957,37.62127],[-2.35647,37.62537],[-2.34543,37.62922],[-2.34043,37.62342],[-2.3167,37.62184],[-2.30874,37.63517],[-2.31996,37.64809],[-2.31951,37.65963],[-2.32596,37.67314],[-2.32334,37.69387],[-2.31328,37.71137],[-2.30659,37.71022],[-2.30795,37.71671],[-2.30502,37.71914],[-2.30807,37.72053],[-2.30752,37.72327],[-2.29472,37.74817],[-2.28707,37.75141],[-2.27678,37.77622],[-2.29128,37.7892],[-2.30177,37.80828],[-2.29357,37.82813],[-2.28939,37.83148],[-2.29487,37.84789],[-2.29495,37.87632],[-2.28852,37.88514],[-2.26539,37.88095],[-2.25078,37.89718],[-2.20767,37.91657],[-2.22284,37.92413],[-2.22771,37.92364],[-2.24716,37.93443],[-2.25342,37.93956],[-2.25883,37.94993],[-2.26681,37.95293],[-2.28009,37.96312],[-2.29807,37.99059],[-2.29847,38.00212],[-2.34163,38.026],[-2.35792,38.02244],[-2.37308,38.02328],[-2.3972,38.03195],[-2.42212,38.03336],[-2.43211,38.04333],[-2.46235,38.05018],[-2.47164,38.05638],[-2.48071,38.05311],[-2.5044,38.06832],[-2.52256,38.06994],[-2.5468,38.07934],[-2.5513,38.08409],[-2.55788,38.08105],[-2.56465,38.08375],[-2.573,38.07783],[-2.57136,38.07579],[-2.57341,38.07426],[-2.58553,38.07254],[-2.58679,38.07011],[-2.59143,38.06953],[-2.59397,38.06494],[-2.60663,38.06144],[-2.59896,38.05877],[-2.59586,38.05319],[-2.59994,38.04362],[-2.59771,38.00721],[-2.60453,38.00139],[-2.60512,37.99815],[-2.62033,37.98821],[-2.64252,37.98107],[-2.6557,37.96626],[-2.66983,37.96143],[-2.68203,37.96708],[-2.68973,37.97381],[-2.70267,37.97152],[-2.70609,37.96732],[-2.71022,37.96793],[-2.71556,37.96223],[-2.72286,37.96245],[-2.72418,37.95582],[-2.72806,37.9553],[-2.7313,37.94884],[-2.73668,37.94732],[-2.74315,37.93577],[-2.75248,37.9312],[-2.75935,37.92398],[-2.76745,37.91935],[-2.7732,37.92593],[-2.78461,37.91764],[-2.78905,37.90761],[-2.79582,37.90218],[-2.79948,37.89003],[-2.80624,37.88093],[-2.8196,37.87613],[-2.81777,37.87231],[-2.82161,37.85793],[-2.81973,37.85292],[-2.83035,37.8394],[-2.82889,37.83717],[-2.83287,37.83551],[-2.83509,37.83],[-2.83958,37.82866],[-2.84058,37.8214],[-2.84354,37.81773],[-2.85696,37.80989],[-2.85944,37.80441],[-2.87315,37.79149],[-2.88029,37.75994]]]}},{"type":"Feature","properties":{"name":"Guadix","core":false,"osmId":9413403,"source":"OpenStreetMap (ODbL)"},"geometry":{"type":"Polygon","coordinates":[[[-3.3959,37.31663],[-3.39436,37.30931],[-3.38368,37.29629],[-3.38381,37.28122],[-3.37503,37.28463],[-3.3776,37.27494],[-3.37195,37.26155],[-3.37085,37.25008],[-3.36623,37.24259],[-3.3583,37.23683],[-3.34934,37.24057],[-3.34226,37.23807],[-3.33922,37.23032],[-3.32194,37.21804],[-3.322,37.2144],[-3.30639,37.21398],[-3.28337,37.1986],[-3.28019,37.1855],[-3.28295,37.18413],[-3.28191,37.17698],[-3.286,37.17256],[-3.27421,37.1657],[-3.27064,37.15845],[-3.26061,37.15327],[-3.25499,37.14486],[-3.24992,37.14175],[-3.25687,37.11324],[-3.2447,37.11407],[-3.23346,37.10468],[-3.2266,37.10263],[-3.22277,37.09667],[-3.19997,37.09039],[-3.16961,37.09433],[-3.15963,37.09215],[-3.15431,37.09481],[-3.13533,37.0966],[-3.1203,37.09192],[-3.10896,37.09487],[-3.10281,37.1011],[-3.08942,37.09846],[-3.07493,37.09095],[-3.05984,37.09373],[-3.05348,37.09275],[-3.03366,37.10677],[-3.02639,37.11657],[-3.02208,37.11334],[-3.01501,37.11328],[-3.00394,37.09711],[-3.00026,37.09498],[-2.98114,37.09297],[-2.96974,37.09657],[-2.94896,37.09655],[-2.94833,37.10615],[-2.94509,37.10711],[-2.94288,37.11177],[-2.94367,37.1187],[-2.94699,37.12221],[-2.94173,37.12465],[-2.9409,37.13066],[-2.93058,37.1398],[-2.92915,37.15657],[-2.91469,37.15849],[-2.91101,37.1635],[-2.8953,37.16705],[-2.88925,37.17702],[-2.88881,37.18207],[-2.87994,37.18983],[-2.88027,37.20395],[-2.87283,37.21989],[-2.87524,37.2237],[-2.87496,37.23146],[-2.86652,37.24305],[-2.86943,37.24556],[-2.85911,37.25048],[-2.85567,37.26862],[-2.85114,37.27612],[-2.84457,37.27942],[-2.83472,37.27781],[-2.83037,37.28009],[-2.8336,37.28246],[-2.83209,37.28806],[-2.83792,37.28887],[-2.84006,37.29237],[-2.84822,37.29552],[-2.85244,37.29233],[-2.85485,37.29729],[-2.85393,37.30096],[-2.86013,37.30683],[-2.86198,37.31286],[-2.85602,37.31502],[-2.85003,37.31371],[-2.83209,37.32562],[-2.83256,37.32801],[-2.83665,37.32879],[-2.83564,37.33526],[-2.83974,37.34263],[-2.83349,37.35099],[-2.8362,37.36355],[-2.85309,37.36887],[-2.86253,37.36419],[-2.87282,37.36593],[-2.88239,37.36304],[-2.89034,37.36354],[-2.89886,37.36792],[-2.90084,37.3729],[-2.89984,37.37877],[-2.89153,37.39036],[-2.89747,37.3947],[-2.91663,37.39923],[-2.93037,37.427],[-2.93863,37.43405],[-2.94056,37.43893],[-2.93718,37.4563],[-2.93873,37.51278],[-2.94111,37.52673],[-2.95315,37.55815],[-2.95523,37.56116],[-2.96337,37.56061],[-2.96724,37.54752],[-2.9659,37.54615],[-2.97033,37.54152],[-2.97539,37.5436],[-2.99036,37.54345],[-3.01406,37.55093],[-3.01108,37.55816],[-3.01249,37.5598],[-2.99812,37.56826],[-3.00495,37.57052],[-3.00526,37.57462],[-3.00934,37.5779],[-3.00602,37.58278],[-3.01385,37.58518],[-3.01369,37.59038],[-3.01835,37.59087],[-3.05334,37.57992],[-3.06328,37.57957],[-3.05566,37.57392],[-3.04298,37.57291],[-3.03777,37.56852],[-3.04764,37.56321],[-3.05045,37.55779],[-3.05691,37.55385],[-3.05325,37.5503],[-3.053,37.54627],[-3.0602,37.53426],[-3.05664,37.52781],[-3.0608,37.52028],[-3.08554,37.52426],[-3.09764,37.51843],[-3.10299,37.52071],[-3.10394,37.51572],[-3.09949,37.51031],[-3.09985,37.50609],[-3.10961,37.50399],[-3.11336,37.49526],[-3.11197,37.48849],[-3.11889,37.48444],[-3.11289,37.47745],[-3.12147,37.46687],[-3.12683,37.46515],[-3.1302,37.46933],[-3.13854,37.47169],[-3.13723,37.47852],[-3.14117,37.4828],[-3.14118,37.4869],[-3.1502,37.49017],[-3.15463,37.48678],[-3.16345,37.48685],[-3.17538,37.47284],[-3.18198,37.47276],[-3.19774,37.45407],[-3.20306,37.45372],[-3.21639,37.45947],[-3.21807,37.45342],[-3.23098,37.45254],[-3.23461,37.44628],[-3.23761,37.4472],[-3.23959,37.43872],[-3.26407,37.44064],[-3.2659,37.43571],[-3.27431,37.43461],[-3.284,37.43676],[-3.28789,37.43208],[-3.28921,37.42052],[-3.29992,37.42171],[-3.31284,37.41933],[-3.30698,37.41601],[-3.31575,37.39734],[-3.32206,37.39568],[-3.3246,37.38135],[-3.3356,37.38187],[-3.33916,37.38756],[-3.34143,37.38692],[-3.34992,37.36194],[-3.37697,37.35721],[-3.38771,37.34171],[-3.38872,37.32934],[-3.39173,37.32064],[-3.3959,37.31663]]]}},{"type":"Feature","properties":{"name":"Los Vélez","core":false,"osmId":2147991,"source":"OpenStreetMap (ODbL)"},"geometry":{"type":"Polygon","coordinates":[[[-2.39127,37.63248],[-2.38879,37.61801],[-2.38032,37.61214],[-2.37598,37.61226],[-2.3679,37.59158],[-2.36981,37.58101],[-2.37493,37.57783],[-2.36789,37.57222],[-2.36746,37.56305],[-2.3743,37.55735],[-2.35573,37.54699],[-2.34387,37.55073],[-2.32631,37.55125],[-2.31234,37.55774],[-2.30698,37.55522],[-2.28514,37.55408],[-2.26928,37.55676],[-2.2636,37.55059],[-2.25992,37.55007],[-2.24486,37.55697],[-2.24018,37.55405],[-2.21496,37.55257],[-2.20079,37.54484],[-2.16211,37.53834],[-2.16181,37.54096],[-2.15338,37.54576],[-2.12809,37.54464],[-2.11389,37.53982],[-2.11498,37.53763],[-2.10395,37.53705],[-2.07488,37.52317],[-2.06564,37.52539],[-2.05908,37.51967],[-2.05157,37.51882],[-2.0412,37.50131],[-2.04042,37.49575],[-2.0437,37.49124],[-2.03528,37.48339],[-2.03444,37.47723],[-2.03026,37.48606],[-2.02543,37.51348],[-2.01288,37.52579],[-1.98786,37.52742],[-1.94772,37.53602],[-1.91724,37.53583],[-1.91115,37.53823],[-1.95378,37.58795],[-1.95528,37.60086],[-1.96514,37.60504],[-1.97005,37.61414],[-1.97681,37.61873],[-1.98172,37.62939],[-1.98307,37.63894],[-1.98747,37.64519],[-1.99277,37.6433],[-1.99581,37.65029],[-2.002,37.65561],[-2.00787,37.66951],[-2.01192,37.67254],[-2.00977,37.68679],[-2.01042,37.69878],[-2.01265,37.7006],[-2.00786,37.71207],[-2.00765,37.71979],[-1.99925,37.72334],[-1.99583,37.72805],[-2.00254,37.74778],[-2.00468,37.76612],[-2.00884,37.77495],[-1.99648,37.81901],[-1.99951,37.82314],[-1.99528,37.84139],[-1.98856,37.85334],[-1.97739,37.86033],[-1.97427,37.86722],[-1.98223,37.87378],[-1.98797,37.87373],[-1.9947,37.88048],[-1.99888,37.8762],[-2.00324,37.87697],[-2.00452,37.88061],[-2.02176,37.86851],[-2.03879,37.8753],[-2.04485,37.87403],[-2.04997,37.87953],[-2.05957,37.88006],[-2.06225,37.88347],[-2.07042,37.88449],[-2.07385,37.88379],[-2.08457,37.87232],[-2.08583,37.87482],[-2.10783,37.88127],[-2.10653,37.88615],[-2.12321,37.90045],[-2.15169,37.89727],[-2.15072,37.89568],[-2.15677,37.89125],[-2.16394,37.89272],[-2.17201,37.88869],[-2.18495,37.90363],[-2.20767,37.91657],[-2.25078,37.89718],[-2.26539,37.88095],[-2.28852,37.88514],[-2.29495,37.87632],[-2.29637,37.86546],[-2.29385,37.84157],[-2.28939,37.83148],[-2.29357,37.82813],[-2.30177,37.80828],[-2.29128,37.7892],[-2.27678,37.77622],[-2.28707,37.75141],[-2.29472,37.74817],[-2.30752,37.72327],[-2.30807,37.72053],[-2.30502,37.71914],[-2.30795,37.71671],[-2.30659,37.71022],[-2.31328,37.71137],[-2.32211,37.697],[-2.32566,37.68155],[-2.32548,37.67075],[-2.31951,37.65963],[-2.31996,37.64809],[-2.30894,37.63343],[-2.3167,37.62184],[-2.34043,37.62342],[-2.34543,37.62922],[-2.35647,37.62537],[-2.35957,37.62127],[-2.36377,37.62147],[-2.37388,37.62921],[-2.39127,37.63248]]]}},{"type":"Feature","properties":{"name":"Alto Almanzora","core":false,"osmId":2148005,"source":"OpenStreetMap (ODbL)"},"geometry":{"type":"Polygon","coordinates":[[[-2.66751,37.24952],[-2.66379,37.23276],[-2.65763,37.22892],[-2.6507,37.23513],[-2.61928,37.24221],[-2.6064,37.2419],[-2.57644,37.24701],[-2.57009,37.24513],[-2.56389,37.2514],[-2.55619,37.24769],[-2.5516,37.24179],[-2.54872,37.22157],[-2.53042,37.21997],[-2.52538,37.21493],[-2.50036,37.209],[-2.47586,37.21275],[-2.4654,37.21768],[-2.45634,37.21622],[-2.4363,37.22489],[-2.42691,37.22252],[-2.42021,37.22508],[-2.41507,37.2367],[-2.4065,37.24625],[-2.40295,37.26456],[-2.39396,37.25546],[-2.38804,37.25815],[-2.36846,37.24993],[-2.36584,37.25401],[-2.36619,37.25926],[-2.36122,37.25409],[-2.34285,37.2532],[-2.33271,37.26584],[-2.30896,37.26924],[-2.29424,37.27639],[-2.29781,37.27132],[-2.29762,37.2655],[-2.29133,37.25828],[-2.27563,37.24788],[-2.27348,37.24196],[-2.26685,37.2412],[-2.25662,37.24513],[-2.24802,37.26295],[-2.24962,37.27152],[-2.2431,37.27154],[-2.2393,37.26601],[-2.22999,37.26049],[-2.24085,37.24909],[-2.23792,37.2457],[-2.22382,37.25374],[-2.22349,37.24437],[-2.21905,37.23686],[-2.21358,37.23678],[-2.21255,37.23909],[-2.20006,37.23756],[-2.16521,37.22445],[-2.15527,37.21558],[-2.14321,37.22662],[-2.14183,37.23237],[-2.13903,37.23371],[-2.14212,37.23868],[-2.13792,37.24274],[-2.13716,37.25014],[-2.11852,37.26884],[-2.12073,37.27752],[-2.11913,37.28015],[-2.10997,37.28234],[-2.1074,37.28508],[-2.08543,37.28664],[-2.08168,37.29207],[-2.07483,37.29534],[-2.0599,37.29376],[-2.04869,37.28815],[-2.03531,37.29061],[-2.02113,37.29812],[-2.01168,37.30668],[-2.00822,37.31824],[-2.00721,37.33348],[-2.00102,37.34966],[-2.00823,37.3557],[-2.00771,37.36739],[-2.00298,37.37745],[-1.99765,37.38157],[-2.00067,37.41761],[-2.00319,37.42283],[-2.01167,37.42583],[-2.01553,37.43271],[-2.02115,37.43533],[-2.02215,37.44141],[-2.02746,37.44415],[-2.02895,37.45082],[-2.02711,37.45331],[-2.03228,37.46275],[-2.03377,37.47941],[-2.0437,37.49124],[-2.04042,37.49575],[-2.0412,37.50131],[-2.05157,37.51882],[-2.05908,37.51967],[-2.0647,37.5251],[-2.07488,37.52317],[-2.10395,37.53705],[-2.11498,37.53763],[-2.11389,37.53982],[-2.12809,37.54464],[-2.15338,37.54576],[-2.16181,37.54096],[-2.16211,37.53834],[-2.20079,37.54484],[-2.21496,37.55257],[-2.24018,37.55405],[-2.24486,37.55697],[-2.25992,37.55007],[-2.2636,37.55059],[-2.26928,37.55676],[-2.28514,37.55408],[-2.30698,37.55522],[-2.31234,37.55774],[-2.32711,37.55107],[-2.34387,37.55073],[-2.35046,37.5474],[-2.35574,37.54755],[-2.36044,37.5375],[-2.35851,37.52229],[-2.36264,37.52003],[-2.38115,37.52292],[-2.3944,37.51762],[-2.39722,37.51338],[-2.40295,37.51556],[-2.4072,37.52446],[-2.4117,37.52494],[-2.41604,37.51598],[-2.42378,37.51288],[-2.43262,37.51177],[-2.43428,37.50948],[-2.44008,37.51117],[-2.45632,37.50943],[-2.46016,37.50755],[-2.45874,37.5047],[-2.46197,37.49869],[-2.45752,37.49083],[-2.4741,37.48347],[-2.50309,37.48351],[-2.51415,37.47953],[-2.53505,37.46204],[-2.55089,37.45635],[-2.55669,37.45038],[-2.56845,37.44639],[-2.57727,37.42903],[-2.59678,37.42102],[-2.61506,37.40569],[-2.63549,37.39431],[-2.63852,37.38844],[-2.6418,37.3875],[-2.64131,37.37767],[-2.64319,37.37594],[-2.63509,37.36472],[-2.63716,37.34335],[-2.64649,37.34331],[-2.65475,37.34025],[-2.65048,37.32586],[-2.65459,37.31763],[-2.65087,37.31233],[-2.66303,37.29614],[-2.66565,37.28533],[-2.66171,37.26668],[-2.66751,37.24952]]]}},{"type":"Feature","properties":{"name":"Noroeste de Murcia","core":false,"osmId":2902370,"source":"OpenStreetMap (ODbL)"},"geometry":{"type":"Polygon","coordinates":[[[-2.34441,38.02993],[-2.32332,38.01417],[-2.29847,38.00212],[-2.29807,37.99059],[-2.28009,37.96312],[-2.26681,37.95293],[-2.25883,37.94993],[-2.25342,37.93956],[-2.23791,37.9285],[-2.22771,37.92364],[-2.22284,37.92413],[-2.19489,37.90998],[-2.18495,37.90363],[-2.17201,37.88869],[-2.16394,37.89272],[-2.15677,37.89125],[-2.15072,37.89568],[-2.15169,37.89727],[-2.12321,37.90045],[-2.10653,37.88615],[-2.10783,37.88127],[-2.08583,37.87482],[-2.08457,37.87232],[-2.07385,37.88379],[-2.07042,37.88449],[-2.06225,37.88347],[-2.05957,37.88006],[-2.04997,37.87953],[-2.04485,37.87403],[-2.03879,37.8753],[-2.02176,37.86851],[-2.00452,37.88061],[-2.00324,37.87697],[-1.99888,37.8762],[-1.9947,37.88048],[-1.98797,37.87373],[-1.98223,37.87378],[-1.97422,37.86847],[-1.97218,37.87996],[-1.96607,37.88465],[-1.87876,37.93752],[-1.85305,37.95779],[-1.82257,37.96964],[-1.7923,37.95346],[-1.77941,37.94957],[-1.74608,37.94479],[-1.73357,37.94889],[-1.70233,37.97414],[-1.67206,37.98792],[-1.67285,37.99039],[-1.66436,37.99455],[-1.66168,38.00156],[-1.63143,38.03455],[-1.62454,38.03943],[-1.61839,38.05441],[-1.61518,38.05637],[-1.62568,38.08967],[-1.63267,38.1635],[-1.61614,38.17574],[-1.58943,38.18996],[-1.579,38.22194],[-1.58407,38.27448],[-1.59503,38.30504],[-1.58873,38.31273],[-1.61147,38.31293],[-1.62868,38.30874],[-1.67025,38.31165],[-1.66936,38.31581],[-1.67254,38.32176],[-1.68396,38.32633],[-1.68795,38.33581],[-1.69273,38.33782],[-1.69241,38.34677],[-1.68492,38.3471],[-1.68151,38.34957],[-1.68527,38.35201],[-1.68194,38.36015],[-1.68756,38.36583],[-1.6974,38.36924],[-1.70194,38.37493],[-1.70741,38.37146],[-1.71146,38.37228],[-1.71273,38.36455],[-1.7173,38.36365],[-1.71786,38.36843],[-1.72944,38.37257],[-1.73384,38.37119],[-1.73437,38.37538],[-1.74351,38.38129],[-1.75168,38.37967],[-1.75384,38.37341],[-1.76185,38.37776],[-1.77072,38.37893],[-1.77114,38.36486],[-1.77912,38.36571],[-1.78055,38.36861],[-1.7856,38.36604],[-1.79575,38.37027],[-1.79695,38.36493],[-1.7843,38.35615],[-1.81103,38.35137],[-1.8219,38.33625],[-1.8273,38.33386],[-1.8431,38.33429],[-1.85424,38.33022],[-1.86872,38.31751],[-1.89322,38.30299],[-1.90754,38.29796],[-1.96286,38.28792],[-1.98263,38.28137],[-2.00016,38.28396],[-2.02103,38.30035],[-2.03006,38.2993],[-2.04899,38.30578],[-2.06377,38.29759],[-2.07622,38.28278],[-2.08353,38.26554],[-2.11373,38.2382],[-2.16905,38.22644],[-2.18679,38.21439],[-2.21294,38.20302],[-2.21583,38.19373],[-2.22257,38.18375],[-2.22211,38.17748],[-2.23156,38.1622],[-2.2456,38.14823],[-2.25101,38.13912],[-2.2504,38.12835],[-2.26165,38.11296],[-2.29336,38.08733],[-2.31205,38.07901],[-2.32847,38.0672],[-2.34441,38.02993]]]}}]}