{
 "type": "FeatureCollection",
 "fake": true,
 "features": [
  {
   "type": "Feature",
   "properties": {
    "layer": "protegidas",
    "name": "Zona protegida ficticia A"
   },
   "geometry": {
    "type": "Polygon",
    "coordinates": [
     [
      [
       -2.72,
       37.74
      ],
      [
       -2.5,
       37.76
      ],
      [
       -2.44,
       37.62
      ],
      [
       -2.6,
       37.56
      ],
      [
       -2.74,
       37.62
      ],
      [
       -2.72,
       37.74
      ]
     ]
    ]
   }
  },
  {
   "type": "Feature",
   "properties": {
    "layer": "protegidas",
    "name": "Zona protegida ficticia B"
   },
   "geometry": {
    "type": "Polygon",
    "coordinates": [
     [
      [
       -2.3,
       37.52
      ],
      [
       -2.14,
       37.54
      ],
      [
       -2.12,
       37.4
      ],
      [
       -2.28,
       37.38
      ],
      [
       -2.3,
       37.52
      ]
     ]
    ]
   }
  },
  {
   "type": "Feature",
   "properties": {
    "layer": "erosion",
    "name": "Erosión alta (ficticia)",
    "class": "alta"
   },
   "geometry": {
    "type": "Polygon",
    "coordinates": [
     [
      [
       -2.92,
       37.58
      ],
      [
       -2.72,
       37.6
      ],
      [
       -2.7,
       37.46
      ],
      [
       -2.9,
       37.44
      ],
      [
       -2.92,
       37.58
      ]
     ]
    ]
   }
  },
  {
   "type": "Feature",
   "properties": {
    "layer": "erosion",
    "name": "Erosión muy alta (ficticia)",
    "class": "muy_alta"
   },
   "geometry": {
    "type": "Polygon",
    "coordinates": [
     [
      [
       -2.68,
       37.46
      ],
      [
       -2.48,
       37.48
      ],
      [
       -2.46,
       37.34
      ],
      [
       -2.66,
       37.32
      ],
      [
       -2.68,
       37.46
      ]
     ]
    ]
   }
  },
  {
   "type": "Feature",
   "properties": {
    "layer": "erosion",
    "name": "Erosión moderada (ficticia)",
    "class": "moderada"
   },
   "geometry": {
    "type": "Polygon",
    "coordinates": [
     [
      [
       -2.44,
       37.74
      ],
      [
       -2.26,
       37.76
      ],
      [
       -2.24,
       37.62
      ],
      [
       -2.42,
       37.6
      ],
      [
       -2.44,
       37.74
      ]
     ]
    ]
   }
  },
  {
   "type": "Feature",
   "properties": {
    "layer": "corredor",
    "name": "Corredor propuesto (ficticio)"
   },
   "geometry": {
    "type": "Polygon",
    "coordinates": [
     [
      [
       -2.9,
       37.7
      ],
      [
       -2.62,
       37.66
      ],
      [
       -2.34,
       37.58
      ],
      [
       -2.16,
       37.46
      ],
      [
       -2.14,
       37.4
      ],
      [
       -2.3,
       37.44
      ],
      [
       -2.58,
       37.54
      ],
      [
       -2.88,
       37.62
      ],
      [
       -2.9,
       37.7
      ]
     ]
    ]
   }
  }
 ]
}